Name,Url,Telephone,Longitude,Latitude,AddressRegion,AddressLocality,AddressCountry,Tags
Valentia Island - Kerry,https://www.discoverireland.ie/kerry,,-10.3624787374577,51.9057706613253,Kerry,,Republic of Ireland,"Restaurant,Craft,Shopping,Bird Watching,Nature and Wildlife,Climbing,Activity Operator,Cruising,Cycling,Fishing,Angling,Gardening,Horse Riding,Equestrian,Kayaking,Kitesurfing,Windsurfing,Photography,Learning,Sailing,Swimming,Swimming Pools and Water Park,Venue,Walking,Historic Houses and Castle,Island,Offshore Island,Natural Landscape,Cafe,Food and Drink,Local Produce,Pubs and Bar,Seafood"
Dun na Rí Forest Park,http://www.coillte.ie/site/dun-a-ri-forest-park/,353494331942,-6.79266149999999,53.9189778,Cavan,Kingscourt,Ireland,"Walking,Forest Park,Park and Forest Walk,National Park,National and Forest Park,Public Park,Nature and Wildlife"
Piltown - Mountain Grove Loop,http://www.trailkilkenny.ie,+353(0)567752111,-7.34111359480207,52.3537317834319,Kilkenny,,Ireland,"Walking,Natural Landscape"
Jenkinstown Wood Loop,http://www.irishtrails.ie/Trail/Jenkinstown-Wood---Jenkinstown-Wood-loop/125/,,-7.28448348388166,52.7311695788291,Kilkenny,Kilkenny City,Ireland,"Walking,Natural Landscape"
Slí Cholmcille,http://www.irishtrails.ie/trail/Sli-Cholmcille/13/,+353(0)749721148,-8.71477570036982,54.6997030560807,Donegal,Glencolmcille,Republic of Ireland,"Walking,Natural Landscape"
Slí Na Finne,,+353(0)749721148,-8.1162042430152,54.8694215846037,Donegal,,Republic of Ireland,"Walking,Natural Landscape"
Slí na Rosann,https://www.govisitdonegal.com/things-to-do/activities/sli-na-rossan-sli-dhun-na-ngall,+353(0)749721148,-8.3633753917632,54.9517634921175,Donegal,,Republic of Ireland,"Walking,Natural Landscape"
Durrow Leafy Loops - Leafy loop,https://www.sportireland.ie/outdoors/walking/trails/durrow-leafy-loops-leafy-loop?county=35&grade=All&length=All#list,,-7.39579761602658,52.8468523376508,Laois,,Ireland,"Walking,Natural Landscape"
O'Gorman's Lane Loop Walk,http://www.irishtrails.ie/Trail/O-Gormans-Lane-/583/,,-7.18228840808342,52.5923527730017,Kilkenny,Bennettsbridge,Ireland,"Walking,Natural Landscape"
Monicknew Trails,http://www.irishtrails.ie/Trail/Monicknew---Valley-Walk/256/,,-7.54632895409872,53.0759841249754,Laois,Clonaslee,Ireland,"Walking,Natural Landscape"
Newcastle Woods,https://www.longford.ie/en/visit/trails/newcastle-woodland-trail/,353433343509,-7.7261067,53.5621238,Longford,,Ireland,"Walking,Natural Landscape"
Durrow Leafy Loops -Dunmore Woods Loop,https://www.sportireland.ie/outdoors/walking/trails/durrow-leafy-loops-dunmore-woods-loop,,-7.39442432501095,52.8476817254982,Laois,,Ireland,"Walking,Natural Landscape"
Abbeyleix Loops - Killamuck Bog,http://www.irishtrails.ie/Trail/Abbeyleix-Loops---Killamuck-Bog-loop/623/,,-7.35307920316802,52.9068305299692,Laois,Abbeyleix,Ireland,"Walking,Natural Landscape"
Rinn Duin Castle Loop,https://www.sportireland.ie/outdoors/walking/trails/rinn-duin-castle-loop?county=53&grade=402&length=All#list,+353(0)906630252,-8.00432573022647,53.544196661934,Roscommon,,Republic of Ireland,"Walking,Castle,Historic Houses and Castle,Ruins"
Glenbarrow Eco Walk,http://slievebloom.ie/walking/glenbarrow,,-7.52521460473349,53.149038742129,Laois,,Ireland,"Walking,Natural Landscape"
Dunbrody Abbey and Visitor Centre,http://www.dunbrodyabbey.com,353862759149,-6.95523,52.282115,Wexford,Campile,Ireland,"Craft,Shopping,Walking,Historic Houses and Castle,Castle,Church Abbey,Monastery,Churches,Abbeys and Monastery,Museums and Attraction,Cafe,Food and Drink,Activity Operator,Tour"
Hyde Bridge Gallery,https://www.yeatssociety.com/,353719142693,-8.474933,54.272077,Sligo,Sligo Town,Republic of Ireland,"Craft,Shopping,Art Gallery"
Monaghan County Museum,https://monaghan.ie/museum/,3534782928,-6.9724846,54.2478562,Monaghan,,Ireland,"Historic Houses and Castle,Museums and Attraction,Tour"
Knock Museum,https://www.knockshrine.ie/key-places-to-visit/knock-museum/,353949388100,-8.91715329999999,53.7900043,Mayo,Knock,Ireland,"Church Abbey,Monastery,Churches,Abbeys and Monastery,Museums and Attraction,Cafe,Food and Drink"
Michael J Quill Centre,http://www.historic-ireland.com/places/778.html,353646685511,-9.46143,51.902656,Kerry,Kilgarvan,Republic of Ireland,Museums and Attraction
Donegal Railway Heritage Centre,http://donegalrailway.com/,353749722655,-8.10802239999999,54.656847,Donegal,Milltown,Ireland,"Transport,Activity Operator,Museums and Attraction,Tour,Coach,Road"
Garter Lane Art Gallery,http://www.garterlane.ie,+353(0)51855038,-7.116447,52.262574,Waterford,Waterford City,Republic of Ireland,"Learning,Movies,Cinema,Venue,Activity Operator,Art Gallery,Music"
River Inny,http://www.fishinginireland.info,35318842600,-7.32313105065918,53.6684318616526,Dublin,Swords,Republic of Ireland,"Fishing,Angling,River,Discovery Point"
West Cork Music,https://www.westcorkmusic.ie/,3532752788,-9.4489112,51.6804291,Cork,Bantry,Ireland,"Learning,Literary Ireland,Venue,Music"
St Brigid’s Cathedral & Round Tower,http://www.stbrigidscathedral.com/,,-6.91137099999999,53.1579272,Kildare,,Ireland,"Historic Houses and Castle,Church Abbey,Monastery,Churches,Abbeys and Monastery"
Croppies Grave,http://www.igp-web.com/Carlow/croppies_graves.htm,,-6.9391607,52.8389539,Carlow,,Ireland,Public Sculpture
Newtown Castle,https://www.newtowncastle.com/history,353657077200,-9.16938609999999,53.1033781999999,Clare,Newtown,Ireland,"Walking,Castle,Historic Houses and Castle"
Temple Cronan Early Christian Church,,353656828366,-9.0609731,53.0461691999999,Clare,,Ireland,"Church Abbey,Monastery,Churches,Abbeys and Monastery"
Saint Cronan's 10th Century Church Tuamgraney,http://www.discoverloughderg.ie/tuamgraney-church,35361921351,-8.5393666,52.8966945,Clare,Tuamgraney,Ireland,"Church Abbey,Monastery,Churches,Abbeys and Monastery"
Ballitore Library & Quaker Museum,http://www.kildare.ie/Library/Library/BallitoreLibrary,353598623344,-6.814924,53.009722,Kildare,Ballitore,Ireland,Museums and Attraction
Fintown Railway,https://www.facebook.com/fintownrailway,353749546280,-8.120414,54.8676191,Donegal,,Ireland,"Transport,Activity Operator,Museums and Attraction,Coach,Road"
Kerry Geopark,https://www.facebook.com/kerrygeopark,+353(0)877934663,-9.897747,51.837759,Kerry,Sneem,Republic of Ireland,"Walking,Natural Landscape,Activity Operator"
Anne Osborne Watercolours,https://www.facebook.com/AnneOsborneWatercolours,353862436740,-8.5999892,54.2707875,Sligo,,Ireland,"Craft,Shopping,Art Gallery,Food Shops"
Famine Warhouse 1848,http://heritageireland.ie/visit/places-to-visit/famine-warhouse-1848/,353879089972,-7.52220989999999,52.6193986,Tipperary,Ballingarry,Ireland,"Historic Houses and Castle,Museums and Attraction"
Lislaughtin Franciscan Friary,,353667121288,-9.47861,52.547334,Kerry,Ballylongford,Republic of Ireland,"Church Abbey,Monastery,Churches,Abbeys and Monastery"
The Lartigue Monorailway,http://www.lartiguemonorail.com,3536824393,-9.490492,52.44965,Kerry,Listowel,Republic of Ireland,"Transport,Activity Operator,Museums and Attraction,Tour,Coach,Road"
Roscrea Castle and Damer House,https://heritageireland.ie/places-to-visit/roscrea-heritage-centre-roscrea-castle-and-damer-house/,35350521850,-7.79815239999999,52.9551159,Tipperary,Roscrea,Ireland,"Photography,Learning,Historic Houses and Castle,Castle,Gardens,Garden,Museums and Attraction,Tour"
Dunguaire Castle,https://www.dunguairecastle.com/,35361711222,-8.9261281,53.1422901,Galway,,Ireland,"Food and Drink,Restaurant,Historic Houses and Castle,Castle,Activity Operator,Food Shops,Shopping,Tour"
Clonfert Cathedral,http://www.megalithicireland.com/Clonfert%20Cathedral.html,,-8.05836789999999,53.2406886999999,Galway,,Ireland,"Church Abbey,Monastery,Churches,Abbeys and Monastery"
Na Seacht Teampaill,https://www.aranislands.ie/inis-mor-inishmore-island/inis-mor-island-churches-celtic-sites/na-seacht-dteampaill-the-seven-churches,3539961263,-9.7774213,53.1457446999999,Galway,Aran Islands,Ireland,"Church Abbey,Monastery,Churches,Abbeys and Monastery"
The Trinity Tree Dingle,,,-10.271003,52.141565,Kerry,Dingle,Republic of Ireland,Public Sculpture
The Wexford Slobs and Wildfowl Reserve,https://www.wexfordwildfowlreserve.ie,353761002660,-6.4200302,52.3570279,Wexford,,Ireland,"Bird Watching,Nature and Wildlife,Learning,Photography,Forest Park,Park and Forest Walk,Walking,National Park,National and Forest Park,Natural Landscape"
Shelmalier Forth Mountain,,+353(0)539239400,-6.57304928597114,52.3166331143593,Wexford,Barntown,Republic of Ireland,"Forest Park,Park and Forest Walk,Walking,National Park,National and Forest Park,Public Park,Nature and Wildlife"
The Irish Pewtermill Centre,,+353(0)879090044,-6.80946763229371,52.9848887447945,Kildare,Moone,Republic of Ireland,Museums and Attraction
Angela Woulfe Gallery,http://www.angelawoulfegallery.com/,35361310164,-8.6288578,52.6591346,Limerick,,Ireland,"Craft,Shopping,Art Gallery"
Greenlane Gallery,https://www.greenlanegallery.com/,353868211225,-10.270908,52.139579,Kerry,Dingle,Ireland,"Craft,Shopping,Learning,Art Gallery,Food Shops"
Pebbles,https://www.lfs.net/pebbles/,3532828165,-9.545538,51.5267892,Cork,Schull,Ireland,"Craft,Shopping,Art Gallery"
Kilcock Art Gallery,https://kilcockartgallery.ie/,353862578283,-6.6682154,53.3998824,Kildare,Kilcock,Ireland,"Craft,Shopping,Shopping Centres and Department Store,Art Gallery,Activity Operator,Tour"
The Warren Gallery,http://www.warren-gallery.com,3532836146,-9.17489609999999,51.528295,Cork,,Ireland,"Craft,Shopping,Art Gallery"
Ballymore Historic Features,http://www.ballymorehistoricfeatures.com,353868246921,-6.374547,52.598346,Wexford,Ballymore,Republic of Ireland,"Museums and Attraction,Tour"
Father Murphy Centre,https://www.facebook.com/Fr-Murphy-Centre-Boolavogue-315611758499163,353539366898,-6.41078079999999,52.5485902,Wexford,Boolavogue,Ireland,Museums and Attraction
Fethard Folk Farm and Transport Museum,http://fethard.com/attra/Museum.html,353526131516,-7.70419179999999,52.4686618,Tipperary,Fethard,Ireland,"Agriculture,Nature and Wildlife,Cycling,Museums and Attraction,Tour"
Baltinglass Abbey,http://visitwicklow.ie/attractions/baltinglass-abbey,,-6.7102325,52.9439747,Wicklow,Baltinglass,Ireland,"Historic Houses and Castle,Church Abbey,Monastery,Churches,Abbeys and Monastery,Ruins"
Christ Church Castlebar,http://www.tuam.anglican.org/aughaval-westport/castlebar-christ-church,,-9.299977,53.854419,Mayo,Castlebar,Republic of Ireland,"Historic Houses and Castle,Church Abbey,Monastery,Churches,Abbeys and Monastery"
Cape Clear Heritage Centre,http://www.capeclearisland.ie/heritageCentre,3532839119,-9.4951214903421,51.4330082748222,Cork,Cape Clear Island,Republic of Ireland,Museums and Attraction
Sligo County Library,https://sligolibrary.ie/,353719111850,-8.47265099999999,54.2727356,Sligo,,Ireland,"Learning,Tracing Your Ancestors,Literary Ireland,Activity Operator"
South Tipperary Genealogy Centre,https://www.bruboru.ie/about-us/genealogy/,3636261122,-7.8884088,52.5212005,Tipperary,Cashel,Ireland,"Tracing Your Ancestors,Museums and Attraction"
Díseart,http://www.diseart.ie,353669152476,-10.270519,52.1418478999999,Kerry,Dingle,Ireland,"Learning,Church Abbey,Monastery,Churches,Abbeys and Monastery,Gardens,Garden"
Ballyhugh Art and Culture Centre Painting,http://homepage.eircom.net/~ballyhugh/art.htm,353499526044,-7.5839647358398,54.1160737914336,Cavan,Ballyconnell,Republic of Ireland,"Craft,Shopping,Learning,Art Gallery,Activity Operator"
Kerry Library,https://www.kerrylibrary.ie/,353667121200,-9.6980208,52.2669381,Kerry,Tralee,Ireland,"Craft,Shopping,Learning,Tracing Your Ancestors,Literary Ireland"
Clonmore Castle,"http://www.megalithicireland.com/Clonmore%20Castle,%20Carlow.html",,-6.5751246,52.8282855999999,Carlow,Hacketstown,Ireland,"Castle,Historic Houses and Castle,Ruins"
Killeshin Romanesque Doorway,,353599147838,-6.99780767060849,52.8479394850703,Carlow,Killeshin,Republic of Ireland,"Church Abbey,Monastery,Churches,Abbeys and Monastery"
Ballynacarriga Castle,http://www.castles.ancientireland.org/ballinacarriga/index.htm,353238833226,-9.03164799999999,51.705571,Cork,Bandon,Ireland,"Castle,Historic Houses and Castle"
Conna Castle,https://www.castles.nl/conna-castle,353862149601,-8.1016545,52.0945204999999,Cork,Conna,Ireland,"Castle,Historic Houses and Castle"
Dún Na Séad Castle,https://www.baltimorecastle.ie/,3532820735,-9.3731024,51.4835712999999,Cork,Baltimore,Ireland,"Historic Houses and Castle,Castle"
Kanturk Castle,https://www.castles.nl/kanturk-castle,353214255100,-8.90272989999999,52.164382,Cork,Banteer,Ireland,"Castle,Historic Houses and Castle"
Kilbolane Castle,https://visitballyhoura.com/explore/kilbolane-castle,3536391300,-8.84686679999999,52.3377251999999,Cork,,Ireland,"Historic Houses and Castle,Castle"
Carrickabraghey Castle,https://www.govisitinishowen.com/directory/carrickabraghy-castle-2,353749363451,-7.3727509,55.3163658,Donegal,,Ireland,"Historic Houses and Castle,Castle,Ruins"
Eighty Two Merrion Square,,+353(0)16761173,-6.251328,53.339313,Dublin,Dublin City Centre,Republic of Ireland,"Castle,Historic Houses and Castle"
Clifden Castle,,3539521163,-10.05673,53.49178,Galway,,Ireland,"Castle,Historic Houses and Castle"
Teach Synge - John Millington Synge's Cottage &  Museum,,3539973036,-9.5923818,53.0844699,Galway,,Ireland,Museums and Attraction
Ballycarbery Castle,https://www.theringofkerry.com/ballycarbery-castle,353646631633,-10.2586267,51.9489036,Kerry,Cahersiveen,Ireland,"Castle,Historic Houses and Castle,Ruins"
Cablemaster's Residence,https://atlanticvilla.ie/cablemaster-house,353872225117,-10.289066,51.922393,Kerry,Knightstown,Republic of Ireland,"Castle,Historic Houses and Castle"
Fahan Beehive Huts,http://www.ancientireland.org/fahan,353879254086,-10.421536,52.1016785,Kerry,Fahan,Ireland,"Church Abbey,Monastery,Churches,Abbeys and Monastery"
Parkavonear Castle,http://www.megalithicireland.com/Parkavonear%20Castle.html,353646631633,-9.5550062,52.0759354,Kerry,,Ireland,"Castle,Historic Houses and Castle"
Tarbert House,http://www.kerrytourism.tarbert.ie/things-to-do/visit-tarbert-house,3536836198,-9.3689933,52.5796639,Kerry,Tarbert,Ireland,Historic Houses and Castle
Harristown House,https://www.harristownhouse.ie,35345483614,-6.6914209,53.1317192,Kildare,,Ireland,"Historic Houses and Castle,Tour"
Kilteel Castle,http://www.megalithicireland.com/Kilteel%20Castle.html,35345521240,-6.5274876,53.2326787,Kildare,,Ireland,"Castle,Historic Houses and Castle,Ruins"
Maynooth Ecclesiastical Museum,http://museum.maynoothcollege.ie,353879152003,-6.5981017,53.3786105999999,Kildare,Maynooth,Ireland,Museums and Attraction
Granagh Castle,https://visionsofthepastblog.com/2017/08/09/granagh-castle-kilkenny-ireland,,-7.16274,52.2825099999999,Kilkenny,,Ireland,"Castle,Historic Houses and Castle"
Edmund Rice Heritage Centre,http://edmundrice.net/edmund-rice/heritage-centres#westcourt-callan,353567725993,-7.398617,52.5525655999999,Kilkenny,,Ireland,"Historic Houses and Castle,Museums and Attraction"
Trinitarian Monastery,https://www.adareparish.ie/our-parish/virtual-tour-2/,35361396172,-8.7890832,52.564815,Limerick,Adare,Ireland,"Historic Houses and Castle,Church Abbey,Monastery,Churches,Abbeys and Monastery"
Magdalene Tower,http://www.drogheda.ie,+353(0)419837070,-6.351512,53.718285,Louth,Drogheda,Republic of Ireland,"Photography,Learning,Walking,Historic Houses and Castle,Church Abbey,Monastery,Churches,Abbeys and Monastery,Ruins"
Old Coastguard Station,http://www.jamescahill.com/coastguardstation.html,353949025500,-9.62084769999999,53.8213182999999,Mayo,,Ireland,Historic Houses and Castle
Partry House,http://www.museumsofmayo.com/partry.htm,353949543004,-9.2625359,53.6685245,Mayo,Partry,Ireland,"Historic Houses and Castle,Tour"
Rockfleet Castle,https://www.destinationwestport.com/directory/rockfleet-castle,3539825711,-9.6270894,53.8960284,Mayo,,Ireland,"Castle,Historic Houses and Castle"
Dardistown Castle,http://www.dardistowncastle.ie,353419829239,-6.3136965,53.6645112,Meath,Julianstown,Ireland,"Photography,Learning,Historic Houses and Castle,Castle,Tour"
Dunmoe Castle,http://www.navanhistory.ie/index.php?page=dunmoe-castle-2,353874555364,-6.6373308,53.6739901,Meath,,Ireland,"Church Abbey,Monastery,Churches,Abbeys and Monastery"
Moygara Castle,http://www.loughgaralakesandlegends.ie/lough-gara/moygara-castle,353719160201,-8.47519039999999,53.9718301,Sligo,,Ireland,"Castle,Historic Houses and Castle"
Ballynahow Castle,http://irishantiquities.bravehost.com/tipperary/ballynahow/ballynahow.html,,-7.8785802,52.6930716,Tipperary,,Ireland,"Castle,Historic Houses and Castle"
Killaghy Castle,http://www.castlesinireland.com/castle-in-tipperary-killaghy-castle-tipperary,,-7.51441629999999,52.5172294,Tipperary,Mullinahone,Ireland,"Castle,Historic Houses and Castle"
Redwood Castle,http://www.redwoodcastleireland.com,353949021375,-8.10585,53.138996,Tipperary,Lorrha,Ireland,"Photography,Learning,Historic Houses and Castle,Castle,Tour"
Ballysaggartmore Towers,https://www.theirishplace.com/heritage/history-ballysaggartmore-towers,,-7.9631741,52.1472156,Waterford,,Ireland,"Walking,Historic Houses and Castle,Castle,Ruins"
Ferns Cathedral,https://www.archaeology.ie/monument-of-the-month/archive/ferns-co-wexford,,-6.4926135,52.5899833,Wexford,,Ireland,"Church Abbey,Monastery,Churches,Abbeys and Monastery"
The Browne Clayton Monument,https://www.igs.ie/conservation/project/browne-clayton-monument,353539196267,-6.8049493,52.3599232,Wexford,,Ireland,Public Sculpture
Altidore Castle,https://www.ihh.ie/index.cfm/houses/house/name/Altidore%20Castle,353877601369,-6.13811729999999,53.1106151,Wicklow,,Ireland,"Historic Houses and Castle,Castle,Museums and Attraction,Tour"
The Barony Of Erris Birdwatching,https://www.mayo-ireland.ie/en/towns-villages/bangor/bangor-activities-birdwatching.html,+353(0)9782292,-9.99073301891792,54.2237204010126,Mayo,,Republic of Ireland,"Bird Watching,Nature and Wildlife,Natural Landscape"
Millstreet Museum,http://www.millstreet.ie/blog/tag/millstreet-museum,3532970844,-9.067209,52.059733,Cork,Millstreet,Republic of Ireland,"Learning,Museums and Attraction"
Cobh Museum,http://www.cobhmuseum.com,353214814240,-8.29943589999999,51.8493205,Cork,Kilgarvan,Ireland,"Tracing Your Ancestors,Historic Houses and Castle,Museums and Attraction"
James Mitchell Museum,https://www.nuigalway.ie/visitorsgeologymuseum,35391492126,-9.060126,53.278255,Galway,Galway City,Republic of Ireland,Museums and Attraction
Limerick City Museum,https://www.limerick.ie/limerick-museum,35361557740,-8.6287673,52.6639172,Limerick,,Ireland,"Learning,Museums and Attraction,Tour"
Waterloo Round Tower,http://www.irishstones.org/place.aspx?p=1232,,-8.573712,51.954691,Cork,Blarney,Republic of Ireland,Historic Houses and Castle
Punchestown Standing Stone,http://www.kildare.ie/kildareheritage,35345521240,-6.6289596,53.1911515,Kildare,,Ireland,"Photography,Learning,Public Sculpture"
Leac an Scail  - Kilmogue dolmen - Harristown Dolmen,http://www.megalithicireland.com/Kilmogue%20Dolmen.htm,,-7.261723,52.402923,Kilkenny,Knocktopher,Republic of Ireland,"Church Abbey,Monastery,Churches,Abbeys and Monastery"
Carrowtemple,http://www.earlychristianireland.net/Counties/sligo/carrowtemple,353719161201,-8.51781723871875,53.9843310127798,Sligo,Gurteen,Republic of Ireland,"Church Abbey,Monastery,Churches,Abbeys and Monastery"
Clogher Castle,https://www.cloghancastle.ie,353719161201,-8.51182,53.9373,Sligo,Monasteraden,Republic of Ireland,"Castle,Historic Houses and Castle"
Culleenamore Middens,http://www.carrowkeel.com/sites/coolrea/culleenamore.html,,-8.6092376,54.260578,Sligo,Strandhill,Ireland,"Church Abbey,Monastery,Churches,Abbeys and Monastery"
Cashel Heritage Centre,https://www.cashel.ie/cashel-heritage-centre/,3536261333,-7.8876149,52.5169758,Tipperary,Cashel,Ireland,Museums and Attraction
Saint Marys Church Of Ireland,https://www.ireland.anglican.org/find-a-church/parish/15860/carlow-st-mary-carlow,353599132565,-6.9331429,52.8369396999999,Carlow,,Ireland,"Church Abbey,Monastery,Churches,Abbeys and Monastery"
Church of the Resurrection Blarney,https://cupcork.ie/,353214877260,-8.56858759999999,51.9336175,Cork,Blarney,Ireland,"Historic Houses and Castle,Church Abbey,Monastery,Churches,Abbeys and Monastery"
Saint Colman's Cathedral,https://cobhcathedralparish.ie,353214813222,-8.2936865,51.8514618,Cork,Kilgarvan,Ireland,"Historic Houses and Castle,Church Abbey,Monastery,Churches,Abbeys and Monastery"
St. Luke's Church,http://www.liveatstlukes.com/,,-8.457078,51.904255,Cork,Cork City,Republic of Ireland,"Church Abbey,Monastery,Churches,Abbeys and Monastery,Venue,Music"
Tullylease Church And Cross Slabs,http://www.irishstones.org/place.aspx?p=861&i=12,,-8.9402469,52.316655,Cork,Tullylease,Ireland,"Church Abbey,Monastery,Churches,Abbeys and Monastery"
Kilmalkedar Church,https://dingle-peninsula.ie/component/zoo/item/kilmalkedar-church.html,,-10.338878,52.185292,Kerry,Ballydavid,Republic of Ireland,"Church Abbey,Monastery,Churches,Abbeys and Monastery"
Augustinian Abbey Adare,http://www.ireland.anglican.org,35361396227,-8.784585,52.567928,Limerick,Adare,Republic of Ireland,"Historic Houses and Castle,Church Abbey,Monastery,Churches,Abbeys and Monastery"
Killary Monastic Site,,,-6.546373,53.707926,Meath,Slane,Republic of Ireland,"Church Abbey,Monastery,Churches,Abbeys and Monastery"
West Gate Heritage Tower,http://wexfordhub.com/history/westgate-tower,353539146506,-6.466286,52.341426,Wexford,,Republic of Ireland,Museums and Attraction
Holy Trinity Church,https://www.buildingsofireland.ie/buildings-search/building/22110009/holy-trinity-church-catholic-main-street-fethard-fethard-tipperary-south,353862750735,-7.6949615,52.4656284,Tipperary,Fethard,Ireland,"Photography,Learning,Historic Houses and Castle,Church Abbey,Monastery,Churches,Abbeys and Monastery"
Kilcooley Abbey,"http://www.megalithicireland.com/Kilcooley%20Abbey,%20Tipperary.html",,-7.5713094,52.6707686,Tipperary,,Ireland,"Church Abbey,Monastery,Churches,Abbeys and Monastery"
Slieveardagh Heritage Centre,http://www.slieveardagh.com/business/slieveardagh-enterprise-centre,353529156165,-7.6701522,52.5685577,Tipperary,Killenaule,Ireland,"Learning,Historic Houses and Castle,Church Abbey,Monastery,Churches,Abbeys and Monastery,Museums and Attraction"
Rattoo Round Tower,https://www.gokerry.ie/rattoo-round-tower/,,-9.65019399999999,52.4426651,Kerry,,Ireland,"Church Abbey,Monastery,Churches,Abbeys and Monastery"
Vincent Hyland Art Gallery,https://www.vincenthylandartist.com/,353831992560,-10.106873,51.754406,Kerry,Caherdaniel,Ireland,"Craft,Shopping,Photography,Learning,Art Gallery"
Ballynahinch Castle Hotel and Gardens,https://www.ballynahinch-castle.com/,3539531006,-9.86296099999999,53.460188,Galway,Recess,Ireland,"Restaurant,Walking,Castle,Historic Houses and Castle,Gardens,Garden,Food and Drink,Tour"
O'Driscoll Garden Centre,https://www.facebook.com/ODriscoll-Garden-Centre-449803402105043/,35350421636,-7.7973804,52.6702947,Tipperary,,Ireland,"Gardening,Nature and Wildlife,Gardens,Garden"
Lahinch Art Gallery,http://www.lahinchartgallery.com,353657081400,-9.3457486,52.9317892,Clare,Lahinch,Ireland,"Craft,Shopping,Shopping Centres and Department Store,Art Gallery,Food Shops"
"Cathedral of the Most Holy Trinity, Waterford",http://www.waterford-cathedral.com/,35351875166,-7.11117209999999,52.2615066,Waterford,,Ireland,"Historic Houses and Castle,Church Abbey,Monastery,Churches,Abbeys and Monastery,Venue,Music"
Youghal Heritage Centre,https://youghal.ie/organisation/youghal-heritage-centre/,3532420170,-7.845717,51.953087,Cork,Youghal,Republic of Ireland,"Museums and Attraction,Food Shops,Shopping"
Tech Amergin,http://www.techamergin.com,353669478956,-10.172331,51.8295849999999,Kerry,Waterville,Ireland,"Craft,Shopping,Learning,Movies,Cinema,Venue,Art Gallery"
Valentia Island Heritage Centre,http://www.vhc.cablehistory.org,353669476411,-10.294597,51.925531,Kerry,,Ireland,"Tracing Your Ancestors,Museums and Attraction,Food Shops,Shopping"
Killoughternane,,,-6.82471115309872,52.6628559636995,Carlow,Bagenalstown,Republic of Ireland,"Church Abbey,Monastery,Churches,Abbeys and Monastery,Ruins,Historic Houses and Castle"
St Johns Priory,,353567751500,-7.24848918846896,52.6536826430907,Kilkenny,Kilkenny City,Republic of Ireland,"Church Abbey,Monastery,Churches,Abbeys and Monastery"
Saint Marys Cathedral,https://www.stmaryscathedral.ie/,353567771253,-7.2570566,52.6523483,Kilkenny,,Ireland,"Historic Houses and Castle,Church Abbey,Monastery,Churches,Abbeys and Monastery,Food Shops,Shopping"
"Old St Mary's Church, Clonmel",https://www.stmarysparishclonmel.ie/,3530526122773,-7.7053964,52.3543347,Tipperary,Oldbridge,Ireland,"Church Abbey,Monastery,Churches,Abbeys and Monastery"
Stradbally Medieval Church,,3535841741,-7.46079348745372,52.130433870236,Waterford,Stradbally,Ireland,"Church Abbey,Monastery,Churches,Abbeys and Monastery"
Kilkieran High Cross,http://www.megalithicireland.com/High%20Cross%20Kilkieran.htm,353567751500,-7.3808278,52.39794,Kilkenny,,Ireland,"Church Abbey,Monastery,Churches,Abbeys and Monastery"
St. Patrick's Well Cross,,,-7.39327656445311,52.4160710356843,Tipperary,Ahenny,Ireland,"Church Abbey,Monastery,Churches,Abbeys and Monastery"
Dunloe Castle,https://killarney.ie/listing/dunloe-castle,353646631633,-9.627419,52.059671,Kerry,Beaufort,Republic of Ireland,"Castle,Historic Houses and Castle"
Firkin Crane Dance Centre,https://www.firkincrane.ie/ ,353214507487,-8.4763208,51.9026986999999,Cork,,Ireland,"Learning,Historic Houses and Castle"
County Carlow Military Museum,https://www.facebook.com/carlowmilitarymuseum,353876904242,-6.928629,52.8433935,Carlow,,Ireland,"Learning,Museums and Attraction"
Cork City Library,http://www.corkcitylibraries.ie,353214924900,-8.475332,51.896731,Cork,Cork City,Republic of Ireland,"Learning,Literary Ireland"
Killarney Art Gallery,http://www.killarneyartgallery.com/,353872767999,-9.5091062,52.0588637,Kerry,Killarney,Ireland,"Craft,Shopping,Art Gallery"
St. Finbarr's South Church,https://www.facebook.com/pages/category/Catholic-Church/St-Finbarrs-South-Church-577874335698942/,353851471147,-8.4714612,51.8942511,Cork,Cork City,Ireland,"Tracing Your Ancestors,Historic Houses and Castle,Church Abbey,Monastery,Churches,Abbeys and Monastery"
St Joseph's Redemptorist Church,https://www.redemptoristsdundalk.ie,353429334042,-6.3895579,54.0042289,Louth,Dundalk,Ireland,"Photography,Learning,Historic Houses and Castle,Church Abbey,Monastery,Churches,Abbeys and Monastery"
Clogher Heritage Complex,http://www.museumsofmayo.com/clogher-heritage-centre/clogher-heritage-centre.html,353949030687,-9.2465285,53.7633927,Mayo,,Ireland,"Walking,Museums and Attraction,Activity Operator,Tour"
Working Artist Studios,https://www.workingartiststudios.com/,353861628471,-9.4614566,51.5627244999999,Cork,Ballydehob,Ireland,"Craft,Shopping,Learning,Art Gallery"
St Mary's Garden of Remembrance,http://www.irishwarmemorials.ie/Memorials-Detail?memoId=560,353761065000,-7.80462829999999,52.6807258,Tipperary,Thurles,Ireland,"Church Abbey,Monastery,Churches,Abbeys and Monastery,Public Park,Nature and Wildlife,Public Sculpture"
St. Laurence's Gate - Drogheda Walls,http://www.discoverboynevalley.ie/boyne-valley-drive/heritage-sites/st-laurences-gate-drogheda-walls,353419872843,-6.347102,53.71591,Louth,Drogheda,Republic of Ireland,"Photography,Learning,Historic Houses and Castle"
The National Design & Craft Gallery,https://www.ndcg.ie/,353567796147,-7.25007859999999,52.6493621,Kilkenny,,Ireland,"Craft,Shopping,Learning,Art Gallery,Cafe,Food and Drink"
Jane Hilliard Gallery,http://www.janehilliard.com/,353861504030,-9.707763,52.2693541,Kerry,Tralee,Ireland,"Craft,Shopping,Art Gallery"
Mossfield Organic Farm,http://www.mossfield.ie,353579131002,-7.8005629,53.060734,Offaly,,Ireland,Visitor Farm
Annemarie Bourke Studio Gallery,https://www.annemariebourke.com/,35361410510,-8.6296155,52.6613859,Limerick,,Ireland,"Craft,Shopping,Learning,Art Gallery"
Herb Garden at Kilgraney House,http://kilgraneyhouse.com/,353599775283,-6.95819999999999,52.6538339,Carlow,,Ireland,"Gardens,Garden,Food Shops,Shopping"
Garryhill House,https://www.buildingsofireland.ie/buildings-search/building/10301651/garryhill-house-garryhill-county-carlow,353599727240,-6.848067,52.678048,Carlow,Bagenalstown,Republic of Ireland,"Castle,Historic Houses and Castle"
Pure Skill,https://www.pureskill.ie,35391515510,-9.10056949999999,53.2711069999999,Galway,,Ireland,"Gaa,Activity Operator"
The Arranmore Ferry,https://thearranmoreferry.com/,353873171810,-8.4423411,54.9831269999999,Donegal,Burtonport,Ireland,"Transport,Activity Operator,Embarkation Point,Island,Offshore Island,Boat,Tour,Coach,Road"
St Iberius Church,,,-6.46214239999999,52.3391990999999,Wexford,,Ireland,"Church Abbey,Monastery,Churches,Abbeys and Monastery"
Belcarra Eviction Cottage,http://www.museumsofmayo.com/eviction-cottage/eviction-cottage-belcarra.html,353879090046,-9.2190281,53.8129006,Mayo,Castlebar,Ireland,"Learning,Museums and Attraction,Tour"
"St Peter's Roman Catholic Church, Drogheda",http://www.saintpetersdrogheda.ie,353419838536,-6.3533726,53.7150105,Louth,Drogheda,Ireland,"Photography,Learning,Historic Houses and Castle,Church Abbey,Monastery,Churches,Abbeys and Monastery"
Castle Leslie Estate,https://www.castleleslie.com/activities/,3534788100,-6.893738,54.318282,Monaghan,Glaslough,Ireland,"Falconry,Nature and Wildlife,Fishing,Angling,Horse Riding,Equestrian,Pampering,Health Farm,Spa and Wellness,Specialised Retreat,Walking,Castle,Historic Houses and Castle,Gardens,Garden,Food and Drink,Restaurant,Activity Operator"
Lettermullen & Garumna Heritage Centre,https://www.xn--cuigal-eva.ie/about,35391551744,-9.73240906606963,53.2432360359837,Galway,Lettermullen Island,Republic of Ireland,"Tracing Your Ancestors,Museums and Attraction"
Marlfield House & Gardens,https://www.marlfieldhouse.com/,353539421124,-6.27521099999999,52.668747,Wexford,Gorey,Ireland,"Walking,Gardens,Garden"
The Spanish Arch,,,-9.0540754,53.2697482,Galway,,Ireland,Museums and Attraction
The Carol Cronin Gallery,https://carolcronin.com/,353861031074,-10.269942,52.141735,Kerry,Dingle,Ireland,"Craft,Shopping,Art Gallery"
The Lace Gallery,http://www.thelacegallery.com,353599155676,-6.7364351,52.7535167,Carlow,,Ireland,"Craft,Shopping,Shopping Centres and Department Store,Art Gallery,Food Shops"
Nowlan Park  Gaelic Stadium,http://www.kilkennygaa.ie,,-7.238554,52.656856,Kilkenny,Kilkenny City,Republic of Ireland,"Gaa,Activity Operator,Stadium,Sports Venue,Venue,Sports Venues"
Oranmore Castle,http://www.oranmorecastle.com,353866003160,-8.9346103,53.2682869,Galway,Oranmore,Ireland,"Castle,Historic Houses and Castle,Venue,Music,Tour"
Greenacres Art Centre,https://www.greenacres.ie/the-gallery/,353539122975,-6.4640300932541,52.3414347677529,Wexford,Wexford Town,Republic of Ireland,"Craft,Shopping,Art Gallery,Venue,Comedy,Music,Activity Operator"
Killagholehane Cemetery and Church,https://www.limerick.ie/discover/eat-see-do/history-heritage/churches-settlements/killagholehane-cemetery-and-church-ruin,35361396255,-8.979017,52.331277,Limerick,Broadford,Republic of Ireland,"Church Abbey,Monastery,Churches,Abbeys and Monastery"
The Dunamaise Arts Centre,https://www.dunamaise.ie/,353578663355,-7.29998339999999,53.0343718,Laois,Portlaoise,Ireland,"Craft,Shopping,Movies,Cinema,Venue,Art Gallery,Comedy,Music"
Hennigan's Heritage Centre,http://hennigansheritage.com/,353872491402,-8.98737349999999,53.9742533999999,Mayo,,Ireland,"Museums and Attraction,Visitor Farm,Tour"
Fairbrook House Garden and Museum,https://www.fairbrook-housegarden.com/,35351384657,-7.2636416,52.2397242,Waterford,,Ireland,"Gardening,Nature and Wildlife,Historic Houses and Castle,Art Gallery,Gardens,Garden,Museums and Attraction,Cafe,Food and Drink,Tour"
Kinsale Museum,https://www.kinsale.ie/2010/06/11/regional-museum/,353214777930,-8.5242949,51.7062716999999,Cork,Kinsale,Ireland,"Learning,Historic Houses and Castle,Museums and Attraction"
Blarney House and Gardens,https://blarneycastle.ie/,353214385252,-8.5707144,51.9291159,Cork,Blarney,Ireland,"Historic Houses and Castle,Gardens,Garden,Cafe,Food and Drink,Tour"
Bainnlann Chul na nGabhar Art Gallery,https://www.facebook.com/bainnlann/,3535841933,-7.62477209999999,52.0897541999999,Waterford,Dungarvan,Ireland,"Craft,Shopping,Art Gallery"
The Donegal Gaeltacht,,,-8.1107141,54.654487,Donegal,Glencolmcille,Ireland,Natural Landscape
Curragh Military Museum,https://www.military.ie/en/public-information/defence-forces-museums/the-curragh-museum,35345445342,-6.8309714,53.1458507,Kildare,,Ireland,"Learning,Photography,Museums and Attraction,Tour"
The Hamilton Gallery,https://hamiltongallery.ie/,353719143686,-8.47239424040606,54.2705261165701,Sligo,,Ireland,"Craft,Shopping,Art Gallery"
Peter Cox Photography Gallery,http://www.petercox.ie/,353646686076,-9.5085599,52.0586039,Kerry,Killarney,Ireland,"Craft,Shopping,Photography,Learning,Art Gallery"
Ballymurrin Quaker Farmstead,http://www.ballymurrinquakerfarmstead.eu,35340448206,-6.1066529,52.9341601,Wicklow,,Ireland,"Agriculture,Nature and Wildlife,Historic Houses and Castle,Museums and Attraction"
West Cork Crafts,https://www.westcorkcrafts.ie/,353838954823,-9.2680878,51.5492652,Cork,Skibbereen,Ireland,"Craft,Shopping,Shopping Centres and Department Store,Art Gallery,Food Shops"
The Gallery Kinsale,http://thegallerykinsale.com/,353868448589,-8.5226584,51.7049884999999,Cork,Kinsale,Ireland,"Craft,Shopping,Art Gallery,Food Shops"
St Aidan's Cathedral,https://www.staidanscathedral.ie/,353539235777,-6.5709015,52.5028662,Wexford,Enniscorthy,Ireland,"Historic Houses and Castle,Church Abbey,Monastery,Churches,Abbeys and Monastery"
Great Sugar Loaf Mountain,http://www.visitwicklow.ie,,-6.151,53.152,Wicklow,Kilmacanogue,Ireland,"Walking,Natural Landscape"
The Back Lane Pop Up Gallery,http://thebacklanegallery.blogspot.com/,353873212948,-9.5062927,52.0589956,Kerry,Killarney,Ireland,"Craft,Shopping,Art Gallery"
Donaghpatrick Church,http://www.discoverboynevalley.ie/boyne-valley-drive/heritage-sites/donaghpatrick-church,,-6.75954919999999,53.6965617,Meath,,Ireland,"Church Abbey,Monastery,Churches,Abbeys and Monastery"
Patrickstown Viewing Point,,,-7.085113,53.74976,Meath,Oldcastle,Ireland,Natural Landscape
Avoca Studio Gallery,https://avocagallery.com/welcome-to-the-avoca-painting-school/,35340235555,-6.2272958,52.8800149,Wicklow,,Ireland,"Craft,Shopping,Art Gallery"
Brideweir Hous,https://www.brideweir.ie,3532536386,-8.1550475,52.0869699,Cork,Conna,Ireland,"Castle,Historic Houses and Castle"
Drishane House,https://drishane.com,3532836126,-9.1811823,51.5261146,Cork,Drishane,Ireland,"Historic Houses and Castle,Gardens,Garden,Museums and Attraction"
Vanda Art Gallery,http://www.vandaluddy.com,353872855705,-9.052645,53.273518,Galway,,Ireland,"Craft,Shopping,Art Gallery"
Secret Gardens Sligo,https://www.secretgardensofsligo.com/gardens,353863375741,-8.47608643854607,54.2764192895825,Sligo,Sligo Town,Ireland,"Gardening,Nature and Wildlife,Gardens,Garden"
"The Glen, Strandhill",,,-8.58085464301154,54.2610508211186,Sligo,Strandhill,Ireland,Natural Landscape
Aine Dunne - Fine Art Tapestry Weaver,http://www.ainedunneweaver.com,353879112502,-6.35127699999999,53.7621139999999,Louth,Drogheda,Ireland,"Craft,Shopping,Learning,Art Gallery,Activity Operator"
Collon House,http://www.collonhouse.com/,353872355645,-6.48649999999999,53.778286,Louth,Collon,Ireland,"Historic Houses and Castle,Gardens,Garden,Tour"
Hall of the Red Earl,https://galwaycivictrust.ie/,35391564946,-9.05368079999999,53.2710074999999,Galway,,Ireland,Museums and Attraction
The Chimera Gallery,https://chimera-gallery.com/,353878038357,-7.3435026,53.5251466,Westmeath,Mullingar,Ireland,Art Gallery
Teach Mhuiris,https://www.gaothdobhair.ie/en/tourist-attractions-gweedore/teach-mhuiris,353749532208,-8.29234646143731,55.0752847715459,Donegal,Derrybeg,Ireland,"Castle,Historic Houses and Castle"
Sarah Walker Gallery,https://sarahwalkergallery.com/,3532770387,-9.9114999,51.6502189,Cork,Castletownbere,Ireland,"Craft,Shopping,Art Gallery,Food Shops"
Ireland Writing Retreat Donegal,https://www.irelandwritingretreat.com,353833356243,-8.23285486695841,55.0514962862241,Donegal,Gweedore,Ireland,"Learning,Activity Operator,Literary Ireland"
Garraí Fadó Garden,https://www.facebook.com/Garra%C3%AD-Fad%C3%B3-Garden-Beara-156532801063072,3532774844,-9.95525744072267,51.685466826339,Cork,Eyeries,Ireland,"Gardening,Nature and Wildlife,Gardens,Garden,Food Shops,Shopping"
North Kerry Museum,http://www.northkerrymuseum.com,353877426231,-9.6553707,52.4708634,Kerry,Ballyduff,Ireland,"Museums and Attraction,Food Shops,Shopping"
Waterville Heritage Gallery,https://skelliggiftstore.com,353871241645,-10.17288159126,51.8283692684111,Kerry,Waterville,Ireland,"Craft,Shopping,Art Gallery,Museums and Attraction,Food Shops"
Michael Hanrahan Artist,https://www.michaelhanrahanartist.com/,353868251550,-9.33880759999999,52.9280625,Clare,Lahinch,Ireland,"Craft,Shopping,Art Gallery,Food Shops"
126 Artist-Run Gallery,https://126gallery.com/,,-9.0494491,53.2772719,Galway,,Ireland,"Craft,Shopping,Art Gallery"
Burren Art & Craft Fair,https://www.facebook.com/burrencrafts,353868111511,-9.15068823475235,53.1169595713339,Clare,Ballyvaughan,Ireland,"Craft,Shopping,Shopping Centres and Department Store,Art Gallery,Food Shops"
The Butter Slip - Kilkenny,,,-7.25232939136697,52.6523615238896,Kilkenny,Kilkenny City,Ireland,Museums and Attraction
Achill Heritage Centre,https://achillheritagecentre.wordpress.com,353863406396,-9.98337119999999,53.9762268999999,Mayo,,Ireland,"Tracing Your Ancestors,Museums and Attraction,Activity Operator"
Claregalway Museum and Forge,https://facebook.com/ClaregalwayHistoricalSociety,353867778217,-8.927952,53.359957,Galway,Claregalway,Ireland,Museums and Attraction
Goma Contemporary Gallery,https://www.facebook.com/gomawaterford,353871961923,-7.10523489999999,52.2594229,Waterford,,Ireland,Art Gallery
Poet's Cottage,http://www.laois.ie/departments/heritage/laois-heritage-trail/poets-cottage,,-7.5924095,53.0048261,Laois,,Ireland,Museums and Attraction
I am of Ireland,https://www.iamofireland.ie/,353877997317,-7.83661849999999,51.9938669999999,Waterford,Clashmore,Ireland,"Craft,Shopping,Shopping Centres and Department Store,Art Gallery,Food Shops"
Michael Budd Blacksmith,https://www.facebook.com/michaelbuddblacksmith/,353876688400,-8.376667,54.079911,Sligo,Castlebaldwin,Ireland,"Craft,Shopping,Art Gallery"
King of the Vikings,http://www.kingofthevikings.com,353761102676,-7.1065787,52.2602933,Waterford,,Ireland,"Learning,Museums and Attraction"
Top of the Rock Viewing Platform Trail,https://facebook.com/rockviewingplatform,+353(0)872989250,-10.2525746836364,51.9603862137861,Kerry,Cahersiveen,Ireland,"Photography,Learning,Walking,Natural Landscape"
Martina Furlong - Artists Studio Gallery,https://www.martinafurlong.com/,353874642440,-6.4063611,52.498219,Wexford,Gorey,Ireland,"Craft,Shopping,Art Gallery"
Haggardstown Old Church and Graveyard,,,-6.3780595,53.9662155,Louth,,Ireland,"Historic Houses and Castle,Church Abbey,Monastery,Churches,Abbeys and Monastery,Ruins"
Blackrock Wetlands,https://visitblackrock.ie/,353872077193,-6.3717605,53.9577093,Louth,,Ireland,"Bird Watching,Nature and Wildlife,Walking,Natural Landscape"
IUNVA Post 19,https://iunvapost19.com/,353864160532,-7.7318534923462,54.9574038713154,Donegal,Letterkenny,Ireland,Public Sculpture
Passage West Maritime Museum CLG,http://passagemuseum.ie/index.html,353871363588,-8.336456,51.872362,Cork,Passage West,Ireland,Museums and Attraction
Cashel Folk Village Museum,https://www.cashelfolkvillage.com,3536263601,-7.8882142,52.5174899,Tipperary,Cashel,Ireland,"Learning,Museums and Attraction"
Carrowkeel Megalithic Site,http://www.megalithicireland.com/Carrowkeel%20home.htm,,-8.38766713650019,54.0745345605894,Sligo,Carrowkeel,Republic of Ireland,"Church Abbey,Monastery,Churches,Abbeys and Monastery"
Coney Island,,,-8.5918066,54.2959612999999,Sligo,Coney Island,Ireland,"Bird Watching,Nature and Wildlife,Walking,Island,Offshore Island,Food and Drink,Pubs and Bar"
Donaghmore Famine Workhouse Museum,http://donaghmoremuseum.ie,353868296685,-7.61259069999999,52.8770211,Laois,Donaghmore,Ireland,"Agriculture,Nature and Wildlife,Photography,Learning,Historic Houses and Castle,Museums and Attraction,Tour"
Coleman Irish Music Centre - Ceoláras Coleman,https://www.colemanirishmusic.com/,353719182599,-8.5230249,53.9962461999999,Sligo,,Ireland,"Learning,Museums and Attraction,Shopping,Traditionally Irish,Venue,Music"
County Museum Dundalk,https://www.louthcoco.ie/en/contact/location_maps/dundalk/dundalk_museum.html,353429327056,-6.3971254,54.0046228,Louth,Dundalk,Ireland,"Historic Houses and Castle,Museums and Attraction,Venue,Music,Tour"
Ballaghmore Castle,"http://www.megalithicireland.com/Ballaghmore%20Castle,%20Laois.html",35350521453,-7.70712899999999,52.9597586,Laois,,Ireland,"Photography,Learning,Historic Houses and Castle,Castle"
Ionad Cois Locha,http://dunleweycentre.com/,353749531699,-8.14764119999999,55.025326,Donegal,Letterkenny,Ireland,"Craft,Shopping,Cruising,Kayaking,Activity Operator,Walking,Museums and Attraction,Cafe,Food and Drink,Boat,Tour"
The Yeats Encounter,https://facebook.com/The-Yeats-Encounter-618433715302579,353871372122,-8.47722771848191,54.2738563268055,Sligo,Sligo Town,Republic of Ireland,"Activity Operator,Literary Ireland"
Sligo Folk Park,https://sligofolkpark.com/,353719165001,-8.39881869999999,54.1294653,Sligo,Riverstown,Ireland,"Museums and Attraction,Cafe,Food and Drink"
Shackleton Museum Athy,https://shackletonmuseum.com/,353598633075,-6.9832541,52.9916784,Kildare,Athy,Ireland,"Museums and Attraction,Tour"
Tropical World,https://tropicalworld.ie/,353749121541,-7.6942623,54.9662137,Donegal,Letterkenny,Ireland,"Bird Watching,Nature and Wildlife,Zoos and Aquarium,Cafe,Food and Drink,Food Shops,Shopping,Tour"
Cavan and Leitrim Railway,https://www.cavanandleitrimrailway.com/,353719638599,-7.9164872,53.8595335,Leitrim,,Ireland,"Museums and Attraction,Tour"
The Burren Art Gallery,https://www.facebook.com/Burren.Art.Gallery/,353862000472,-8.9180727,53.0049327,Clare,,Ireland,"Craft,Shopping,Art Gallery"
Doe Castle,https://heritageireland.ie/places-to-visit/doe-castle/,353872937383,-7.8645123,55.1352927,Donegal,,Ireland,"Castle,Historic Houses and Castle"
Mary Crowley's Artist Studio and Gallery,https://marycrowleyart.com/,353862664554,-7.49599965152231,55.2695837391062,Donegal,Clonmany,Republic of Ireland,"Craft,Shopping,Shopping Centres and Department Store,Art Gallery,Food Shops"
Workhouse Attic Memorial,https://leitrimtourism.com/heritage/st-georges-heritage-and-visitor-centre/,353719621757,-8.0948333,53.9468895999999,Leitrim,,Ireland,"Museums and Attraction,Tour"
Glenview Folk Museum,http://glenviewmuseum.ie,353719644157,-7.7977659,54.0270155,Leitrim,Ballinamore,Ireland,"Restaurant,Museums and Attraction,Food and Drink,Pubs and Bar,Tour"
Sliabh An Iarainn Visitor Centre,https://leitrimtourism.com/heritage/sliabh-an-iarainn-visitor-centre/,353719641851,-8.0492747,54.0388583,Leitrim,,Ireland,Museums and Attraction
St George's Heritage & Visitor Centre,https://stgeorgesheritagevisitorcentre.ie/,353719621757,-8.0948333,53.9468895999999,Leitrim,,Ireland,"Learning,Museums and Attraction,Tour"
The Irish Fly Fishing and Game Museum,http://laois.ie/departments/heritage/laois-heritage-trail/irish-fly-fishing-and-game-shooting-museum,353578736112,-7.34727699999999,52.8342124,Laois,Attanagh,Ireland,"Fishing,Angling,Museums and Attraction,Tour"
Costello Chapel,http://www.carrickonshannonparish.com/costello.htm,353719620170,-8.0953457,53.9453089999999,Leitrim,,Ireland,"Church Abbey,Monastery,Churches,Abbeys and Monastery"
The Cathedral of Saint Patrick and Saint Felim,https://www.kilmorediocese.ie/cathedral-of-st-patrick-st-felim,353494331496,-7.3617541,53.9951218,Cavan,,Ireland,"Photography,Learning,Historic Houses and Castle,Church Abbey,Monastery,Churches,Abbeys and Monastery"
Abbey Road Artists’ Studios,http://www.athloneartsandtourism.ie/artists-studios/,353906442154,-7.9442923,53.429856,Westmeath,Athlone,Ireland,"Craft,Shopping,Art Gallery"
Nano Nagle Birthplace,http://www.nanonaglebirthplace.ie/,3532226411,-8.52272999999999,52.1512699999999,Cork,,Ireland,"Museums and Attraction,Activity Operator,Tour"
The Kenny Gallery,http://www.TheKennyGallery.ie,35391709350,-9.037494,53.2858129999999,Galway,Galway City,Ireland,"Craft,Shopping,Art Gallery"
Fiona Turley - Gallery Crafts,https://www.fionaturley.com/,3532527972,-8.2491951,52.1758149,Cork,Kilworth,Ireland,"Craft,Shopping,Art Gallery,Food Shops"
Ronan Halpin Gallery,https://ronanhalpin.com/,353872770409,-10.0966407,53.973012,Mayo,Newtown,Ireland,"Craft,Shopping,Art Gallery,Food Shops"
Waterford Room,http://waterfordlibraries.ie/branches/,+353(0)51849975,-7.11108,52.259561,Waterford,Waterford City,Republic of Ireland,"Learning,Historic Houses and Castle,Literary Ireland"
Dartfield Country Estate and Horse Museum,http://www.dartfield.com,35391843968,-8.479863,53.219883,Galway,Kilreekill,Ireland,"Agriculture,Nature and Wildlife,Horse Riding,Equestrian,Learning,Museums and Attraction,Cafe,Food and Drink,Activity Operator,Food Shops,Shopping"
The Shannon Pot,http://www.marblearchcavesgeopark.com/attraction/shannon-port/,353719853941,-7.919,54.23475,Cavan,,Ireland,"River,Discovery Point"
Castlerea Railway Museum,https://www.hellskitchenmuseum.com/,353872308152,-8.494766,53.769823,Roscommon,,Ireland,Museums and Attraction
Frances Crowe Fibre Artist at Grange Studio,https://francescrowe.com/,353877760250,-8.2470631,53.721639,Roscommon,Grange,Ireland,"Craft,Shopping,Learning,Art Gallery,Activity Operator"
Clew Bay Heritage Centre,https://www.westportheritage.com/,3539826852,-9.55461,53.801673,Mayo,Rosbeg,Ireland,"Walking,Tracing Your Ancestors,Museums and Attraction,Activity Operator,Tour"
The Masonic Centre,http://freemasonsnorthmunster.com,35361313399,-8.6256075,52.6704984,Limerick,,Ireland,"Learning,Historic Houses and Castle,Museums and Attraction,Tour"
Nenagh Heritage Centre & North Tipperary Genealogy,https://www.facebook.com/Nenaghheritage/,3536733850,-8.2007414,52.8656669,Tipperary,Nenagh,Ireland,"Tracing Your Ancestors,Historic Houses and Castle,Museums and Attraction,Tour"
The Sacred Heart Church,http://www.sacredheartroscommon.com,353906626298,-8.195589,53.628628,Roscommon,Roscommon Town,Republic of Ireland,"Church Abbey,Monastery,Churches,Abbeys and Monastery"
Kiltyclogher Heritage Centre and Seán MacDiarmada’s Cottage,http://kiltyclogherheritagecentre.com,353719854865,-8.03790249999999,54.3562595,Leitrim,Kiltyclogher,Ireland,"Museums and Attraction,Tour"
Claypipe Visitor Centre,https://www.facebook.com/ClaypipeCentre,353906661923,-8.095668,53.576378,Roscommon,Knockcroghery,Ireland,"Craft,Shopping,Museums and Attraction,Food Shops"
Inishmurray Island,https://inishmurray.com/,,-8.66140731884763,54.4324497652454,Sligo,Inishmurray,Republic of Ireland,"Island,Offshore Island"
Custom House Studios & Gallery,https://www.customhousestudios.ie/,3539828735,-9.5471245,53.8002199,Mayo,,Ireland,"Craft,Shopping,Art Gallery"
Bishop's Quarter ,,,-9.127942,53.1291281,Clare,Ballyvaughan,Ireland,"Swimming,Swimming Pools and Water Park,Venue,Beach,Natural Landscape"
Lough Derg Place of Pilgrimage,https://www.loughderg.org/,353719861518,-7.87127813389588,54.6089850115485,Donegal,Pettigo,Republic of Ireland,"Transport,Walking,Church Abbey,Monastery,Churches,Abbeys and Monastery,Island,Offshore Island,Coach,Road"
Kildemock Jumping Church,http://www.louthholidays.com,353429352111,-6.518018,53.831371,Louth,Ardee,Republic of Ireland,"Church Abbey,Monastery,Churches,Abbeys and Monastery,Ruins,Historic Houses and Castle"
John Hurley Gallery,http://hurleyscapes.com/,353872838895,-9.70546199999999,52.2690129,Kerry,Tralee,Ireland,"Craft,Shopping,Art Gallery"
Irish Military War Museum,https://irishmilitarywarmuseum.com/,353419819501,-6.47071249999999,53.7642649999999,Meath,Collon,Ireland,"Learning,Museums and Attraction,Cafe,Food and Drink,Activity Operator,Tour"
Christ Church - Glandore,https://www.facebook.com/christchurchglandore,353238848166,-9.1237442,51.5656831,Cork,,Ireland,"Historic Houses and Castle,Church Abbey,Monastery,Churches,Abbeys and Monastery"
Kilkenny City Library,https://www.kilkennylibrary.ie,+353(0)567794174,-7.250184,52.653473,Kilkenny,Kilkenny City,Republic of Ireland,"Learning,Literary Ireland"
Kilkenny Library Local Studies,http://kilkennylibrary.ie/eng/our_services/local_studies,353567794160,-7.24659719999999,52.655429,Kilkenny,,Ireland,"Learning,Tracing Your Ancestors,Literary Ireland"
Kerry Writers' Museum,https://www.kerrywritersmuseum.com/,3536822212,-9.4864602,52.4446144,Kerry,Listowel,Ireland,"Learning,Museums and Attraction,Literary Ireland,Cafe,Food and Drink"
Valentia Slate,https://www.facebook.com/ValentiaSlate/,353862398008,-10.3427468,51.9251401,Kerry,,Ireland,"Activity Operator,Natural Landscape,Tour"
Slieve Bloom Mountains,,,-7.5672222,53.0933333,Laois,,Ireland,"Walking,Natural Landscape"
Clare Museum,https://www.clarelibrary.ie/eolas/claremuseum,353656823382,-8.98146669999999,52.8440982,Clare,Ennis,Ireland,"Learning,Museums and Attraction"
River Nore,,,-7.3441386,52.7294592,,,Ireland,"River,Discovery Point"
Lorrha Monastic Village,https://www.visitlorrhadorrha.com/history.html,353872031798,-8.1223562,53.0944354,Tipperary,Lorrha,Ireland,"Church Abbey,Monastery,Churches,Abbeys and Monastery,Ruins,Historic Houses and Castle,Tour"
The Irish Museum of Time,https://www.waterfordtreasures.com/irish-museum-of-time,353761102501,-7.1068373,52.2606433,Waterford,,Ireland,"Craft,Shopping,Museums and Attraction,Tour"
Irish Silver Museum,https://www.waterfordtreasures.com/irish-silver-museum,353761102501,-7.1070386,52.2601005999999,Waterford,Waterford City,Ireland,"Craft,Shopping,Historic Houses and Castle,Museums and Attraction"
Deserted Village Guided Tour,https://achilltourism.com/deserted-village-guided-tours/,3539820400,-10.0767149,53.996425,Mayo,,Republic of Ireland,"Activity Operator,Ruins,Historic Houses and Castle,Tour,Walking"
Kiltartan Gregory Museum,https://www.kiltartangregorymuseum.org/,353868252164,-8.81543499999999,53.0994010999999,Galway,Cross,Ireland,"Historic Houses and Castle,Museums and Attraction,Literary Ireland,Tour"
Sligo Famine Family Memorial,,,-8.47677159999999,54.2738410999999,Sligo,,Ireland,Public Sculpture
WB Yeats Statue,,,-8.47384559999999,54.2725362,Sligo,,Ireland,"Photography,Learning,Public Sculpture,Literary Ireland"
Gleniff Horseshoe,https://sligowalks.ie/walks/the-gleniff-horse-shoe-benwisken-trail/,,-8.41511929999999,54.3708664,Sligo,,Ireland,"Cycling,Walking,Natural Landscape"
Charlie Chaplin Statue,,,-10.172121,51.8263396999999,Kerry,Waterville,Republic of Ireland,Public Sculpture
Viking Long Boat and Dragon Slayer Sword,,,-7.1053454,52.2605403,Waterford,,Ireland,Public Sculpture
The National Monument,,,-8.4745872,51.8960944,Cork,,Ireland,"Tracing Your Ancestors,Public Sculpture"
Statue of King Puck Killorglin,,,-9.78185769999999,52.1063939999999,Kerry,,Ireland,Public Sculpture
The Monk's Fishing House,,,-9.2889015,53.5399542,Mayo,Cong,Ireland,"Ruins,Historic Houses and Castle"
 Newport Railway Viaduct,,,-9.5449174,53.8843415,Mayo,Newport,Ireland,Historic Houses and Castle
Mulranny Saltmarsh,,,-9.7843193,53.8975187,Mayo,,Ireland,"Bird Watching,Nature and Wildlife,Natural Landscape"
Quincentennial  Fountain ,,,-9.04941819999999,53.2747095,Galway,Eyre Square,Republic of Ireland,"Historic Houses and Castle,Public Sculpture"
Galway City's Medieval Walls ,https://www.galwaycitymuseum.ie/medieval-galway/?locale=en,,-9.0499506,53.2731132,Galway,Eyre Square,Republic of Ireland,"Historic Houses and Castle,Ruins"
Knockboy and Priest's Leap,,,-9.47126589999999,51.7935396,Cork,,Ireland,Natural Landscape
Statue of John B. Keane,,,-9.48590239999999,52.4459208,Kerry,Listowel,Ireland,Public Sculpture
The Mission Sculpture,,,-9.5135087,52.0570463,Kerry,Killarney,Republic of Ireland,Public Sculpture
Dunloe Ogham Stones,,,-9.63480199999999,52.0603969999999,Kerry,Tralee,Ireland,Public Sculpture
"Árthach Dána, Amergin Memorial Sculpture & Sundial",,,-10.172165,51.8256197,Kerry,Waterville,Ireland,"Historic Houses and Castle,Public Sculpture"
Mick O'Dwyer Statue,,,-10.1721644,51.8267389,Kerry,Waterville,Ireland,"Gaa,Public Sculpture"
Monsignor Hugh O'Flaherty Memorial Statue,,,-9.5110669,52.0572116,Kerry,Killarney,Ireland,Public Sculpture
Johnny O'Leary Memorial Statue,,,-9.5071997,52.0573361,Kerry,Killarney,Ireland,Public Sculpture
Charles De Gaulle Memorial,,,-9.9018436,51.8388354999999,Kerry,,Ireland,Public Sculpture
Bronze Statue of John Egan,,,-9.89887609999999,51.8377533,Kerry,,Ireland,"Gaa,Public Sculpture"
The Way the Fairies Went,,,-9.9002382,51.8373175,Kerry,,Ireland,"Gardens,Garden,Public Sculpture"
"Church Island, Lough Currane",,,-10.129444,51.835,Kerry,,Ireland,"Church Abbey,Monastery,Churches,Abbeys and Monastery,Island,Offshore Island,Ruins,Historic Houses and Castle"
The Diaspora Lady,,,-9.7897011,52.1066299999999,Kerry,Killorglin,Ireland,Public Sculpture
Ballykissane Monument,,,-9.7854727,52.1255557,Kerry,,Republic of Ireland,Public Sculpture
Pikeman Statue,,,-9.7051622,52.269098,Kerry,Tralee,Republic of Ireland,Public Sculpture
Willie Clancy Statue,,,-9.4007763,52.8562013,Clare,,Ireland,Public Sculpture
Mohammed Ali Monument,,,-8.9850989,52.8379988,Clare,Ennis,Ireland,Public Sculpture
The O'Connell Monument,,,-8.63174589999999,52.6589358999999,Limerick,Limerick City,Republic of Ireland,Public Sculpture
Tait's Clock,,,-8.6273501,52.6599472,Limerick,,Ireland,"Historic Houses and Castle,Public Sculpture"
Charlie Haughey Memorial,,,-10.2751531,52.1387839,Kerry,Dingle,Ireland,Public Sculpture
Writers Wall,,,-10.2786912,52.1443777,Kerry,Dingle,Republic of Ireland,Public Sculpture
The Whitethorn Gallery,https://thewhitethorngallery.ie/,353872275171,-10.0210035,53.4890736,Galway,Clifden,Republic of Ireland,"Craft,Shopping,Art Gallery"
Eamon Kelly Memorial Statue,,,-9.2719471,52.1166851,Kerry,,Ireland,Public Sculpture
Foust Gallery,http://www.sarafoustartist.com,353863366908,-9.293533,52.9398625,Clare,,Ireland,"Craft,Shopping,Art Gallery,Food Shops"
Avoca Mount Usher Gardens,https://www.avoca.com/en/stores-and-cafes/mount-usher,35340440116,-6.10654169999999,53.0087182,Wicklow,Ashford,Ireland,"Restaurant,Food and Drink,Shopping,Shopping Centres and Department Store,Gardens,Garden,Cafe,Vegetarian,Food Shops"
"The Old Bridge, Trim",,,-6.7910032,53.556326,Meath,Trim,Ireland,Historic Houses and Castle
Wellington Memorial,http://www.trimtown.ie/places-of-interest-in-trim-town-co-meath/wellington-memorial/,,-6.79374239999999,53.5521983999999,Meath,Trim,Ireland,"Historic Houses and Castle,Public Sculpture"
Rose of Tralee Statue,,,-9.7043707,52.2671298,Kerry,Tralee,Ireland,"Public Park,Nature and Wildlife,Public Sculpture"
The Courthouse Gallery & Studios,http://thecourthousegallery.com,353657071630,-9.2919669,52.9407303,Clare,,Ireland,"Craft,Shopping,Art Gallery"
Ballinamuck Visitor Centre,https://www.facebook.com/1798-Visitor-Centre-Ballinamuck-648915221856896/,353879613312,-7.7170386,53.8653036,Longford,Ballinamuck,Ireland,"Historic Houses and Castle,Museums and Attraction"
Lismore Library,http://waterfordlibraries.ie/branches/,353761102377,-7.9348626,52.1366658,Waterford,Lismore,Ireland,"Learning,Literary Ireland"
Michael Collins Monument,,,-8.8564753,51.8135505,Cork,,Ireland,Public Sculpture
Father Mathew Statue,,,-8.47032939999999,51.8999630999999,Cork,,Ireland,Public Sculpture
Ross Castle,https://heritageireland.ie/visit/places-to-visit/ross-castle/,353646635851,-9.53143809999999,52.0412494,Kerry,Killarney,Ireland,"Cruising,Cycling,Fishing,Angling,Photography,Learning,Walking,Historic Houses and Castle,Castle,National Park,National and Forest Park,Natural Landscape,Boat,Tour"
Knights and Conquests Exhibition Centre,https://www.knightsandconquests.ie,353867006715,-7.4969922,53.7751899,Longford,Granard,Ireland,"Activity Operator,Museums and Attraction,Tour"
The People's Museum of Limerick,http://peoplesmuseum.ie,353871095906,-8.6299147,52.6582447,Limerick,Limerick City,Republic of Ireland,Museums and Attraction
Clare Heritage & Genealogy Centre,http://www.clareroots.com,353656837955,-9.0627719,52.9449817,Clare,Corofin,Ireland,"Learning,Activity Operator,Tracing Your Ancestors,Museums and Attraction"
The Irish Workhouse Centre,http://www.irishworkhousecentre.ie,353909759200,-8.22380101827695,53.0988276375127,Galway,Portumna,Republic of Ireland,"Museums and Attraction,Food Shops,Shopping,Tour"
Athenry Arts and Heritage Centre,https://www.athenryheritagecentre.com,35391844661,-8.746298,53.299265,Galway,Athenry,Ireland,"Learning,Museums and Attraction,Tour"
Dan O’Hara’s Homestead  - Connemara Heritage & History Centre,https://www.connemaraheritage.net/,3539521246,-9.9117698,53.4792441,Galway,Clifden,Ireland,"Restaurant,Learning,Museums and Attraction,Food and Drink"
Carlow County Museum,https://carlowmuseum.ie,353599131554,-6.92801979999999,52.8362239999999,Carlow,,Ireland,"Learning,Museums and Attraction"
Michael Collins House,http://michaelcollinshouse.ie,353238858676,-8.8914,51.6217,Cork,Clonakilty,Ireland,"Museums and Attraction,Food Shops,Shopping,Tour"
Killary Fjord Shellfish,http://www.KillaryFjordShellfish.com,353876407713,-9.8043011,53.6009459,Galway,,Ireland,"Agriculture,Nature and Wildlife,Food and Drink,Restaurant,Learning,Visitor Farm,Tour"
Waterford Treasures Museums in the Viking Triangle,https://www.waterfordtreasures.com/,353761102501,-7.1076919,52.2595408,Waterford,,Ireland,"Museums and Attraction,Tour,Walking"
Francis Ledwidge Museum,http://www.francisledwidge.com,353419824544,-6.5274991,53.7071243,Meath,Slane,Ireland,"Learning,Historic Houses and Castle,Museums and Attraction,Tour"
Patrick Kavanagh Centre,https://www.patrickkavanaghcentre.com/,353429378560,-6.5769969,54.0016585,Monaghan,,Ireland,"Learning,Museums and Attraction,Literary Ireland,Tour"
Atlantic Air Adventures,https://atlanticairadventures.com,35361363687,-8.870205,52.713908,Clare,,Ireland,"Learning,Activity Operator,Museums and Attraction"
Father Peyton Centre,https://fatherpeytoncentre.ie/,3539645374,-9.0840683,54.0498936,Mayo,Ballina,Ireland,Museums and Attraction
Blackwater Castle,https://www.blackwatercastle.com/history-and-heritage/,3532226333,-8.460477,52.170583,Cork,Castletownroche,Ireland,"Castle,Historic Houses and Castle,Tour"
Allihies Copper Mine Museum,http://www.acmm.ie/theminemuseum,3532773218,-10.045585,51.638933,Cork,Allihies,Republic of Ireland,"Learning,Walking,Museums and Attraction,Cafe,Food and Drink"
Enniscorthy Castle,http://www.enniscorthycastle.ie,353539234699,-6.56722349999999,52.5014239,Wexford,Enniscorthy,Ireland,"Historic Houses and Castle,Castle,Tour"
Lismore Castle Art Gallery,http://www.lismorecastlearts.ie,3535854061,-7.9347132,52.1405878,Waterford,Lismore,Ireland,"Craft,Shopping,Art Gallery"
Highlanes Municipal Art Gallery,https://highlanes.ie/,353419803311,-6.34864739999999,53.7153681,Louth,Drogheda,Ireland,"Craft,Shopping,Learning,Historic Houses and Castle,Art Gallery,Church Abbey,Monastery,Churches,Abbeys and Monastery,Cafe,Food and Drink,Local Produce,Restaurant,Tour"
The National 1798 Rebellion Centre,http://www.1798centre.ie/,353539237596,-6.5693797,52.4967188,Wexford,Enniscorthy,Ireland,"Museums and Attraction,Tour"
Ardfert Cathedral,https://heritageireland.ie/visit/places-to-visit/ardfert-cathedral/,353667134711,-9.78162969999999,52.3285242999999,Kerry,Ardfert,Ireland,"Historic Houses and Castle,Church Abbey,Monastery,Churches,Abbeys and Monastery,Ruins"
Cork Butter Museum,http://thebuttermuseum.com/,353214300600,-8.476735,51.9027649999999,Cork,,Ireland,"Learning,Historic Houses and Castle,Museums and Attraction"
Old Irish Goat Visitor Centre,https://oldirishgoat.ie,,-9.756214,53.9060588999999,Mayo,,Ireland,"Learning,Shopping,Shopping Centres and Department Store,Visitor Farm,Food Shops"
Aughnanure Castle,https://heritageireland.ie/visit/places-to-visit/aughnanure-castle/,35391552214,-9.2757515,53.4187829,Galway,Oughterard,Ireland,"Castle,Historic Houses and Castle,Tour"
Lifford Old Courthouse,https://liffordoldcourthouse.com/,353749141733,-7.4786262,54.8332160999999,Donegal,Lifford,Ireland,"Museums and Attraction,Food and Drink,Restaurant,Tour"
Sam Maguire Visitor Experience,http://fanlobbus.ie/Sam-Maguire.htm,353872390849,-9.11039919999999,51.7221878999999,Cork,Dunmanway,Ireland,"Gaa,Learning,Activity Operator,Museums and Attraction"
Holycross Abbey,http://www.holycrossabbey.ie,35350443124,-7.8681021,52.6395472,Tipperary,Holycross,Ireland,"Church Abbey,Monastery,Churches,Abbeys and Monastery,Food Shops,Shopping,Tour"
Michael Davitt Museum,http://www.michaeldavittmuseum.ie,353949031942,-9.1307741,53.921068,Mayo,,Ireland,"Tracing Your Ancestors,Church Abbey,Monastery,Churches,Abbeys and Monastery,Museums and Attraction,Ruins,Historic Houses and Castle,Activity Operator"
South Tipperary Arts Centre,https://www.southtippartscentre.ie/,353526127877,-7.69873379999999,52.3531998,Tipperary,Raheen,Ireland,"Craft,Shopping,Learning,Art Gallery"
Dingle Whiskey Distillery,http://dingledistillery.ie,353664029011,-10.2892974,52.1418288,Kerry,,Ireland,"Food and Drink,Restaurant,Learning,Museums and Attraction,Food Trails and Tour,Tour"
Dunbrody Famine Ship Experience and Restaurant,https://www.dunbrody.com,35351425239,-6.9478547,52.3938096,Wexford,New Ross,Ireland,"Restaurant,Museums and Attraction,Food and Drink,Tour"
Dungarvan Castle,https://heritageireland.ie/places-to-visit/dungarvan-castle/,3535848144,-7.6161511054878,52.0892648611029,Waterford,Dungarvan,Republic of Ireland,"Historic Houses and Castle,Castle,Museums and Attraction"
The Kennedy Homestead,http://www.kennedyhomestead.ie,35351388264,-6.9808663,52.3463063999999,Wexford,Dunganstown,Ireland,"Photography,Learning,Museums and Attraction,Tour"
Michael Collins Centre,http://www.michaelcollinscentre.com,353238846107,-8.82139099999999,51.6431607,Cork,Clonakilty,Ireland,"Learning,Museums and Attraction,Tour"
"The Quiet Man Museum, Tours & Giftshop",http://www.quietmanmuseum.com,353949546089,-9.28811549999999,53.5408714,Mayo,Cong,Ireland,"Transport,Movies,Cinema,Venue,Activity Operator,Museums and Attraction,Tour,Coach,Road"
The Music Makers of West Clare,http://www.themusicmakers.ie,353657085785,-9.40333139999999,52.8540133,Clare,,Ireland,"Learning,Museums and Attraction"
St Brigid's Well & Shrine,,,-7.352575,53.5495302,Westmeath,,Ireland,Public Sculpture
Ballinastoe and Lower Vartry Reservoir,https://www.sportireland.ie/outdoors/walking/trails/roundwood-reservoir-lower-vartry-trail,,-6.20224303535155,53.0912329981869,Wicklow,Roundwood,Ireland,"Walking,Natural Landscape"
Skibbereen Heritage Centre,https://skibbheritage.com/,3532840900,-9.271913,51.5508649999999,Cork,Skibbereen,Ireland,"Tracing Your Ancestors,Museums and Attraction"
Finnerty's Mills,https://www.facebook.com/FinnertysMills/,353863855657,-8.4623733,53.1609948,Galway,Leitrim,Ireland,"Learning,Historic Houses and Castle,Museums and Attraction"
Joan Clancy Art Gallery,https://www.joanclancygallery.com/,3535846205,-7.59762776736675,52.0571518478223,Waterford,Ring,Republic of Ireland,"Craft,Shopping,Art Gallery"
